{
  "type": "FeatureCollection",
  "features": [
    {
      "type": "Feature",
      "properties": {
        "norad_id": 40889,
        "name": "GSAT0205 (GALILEO 9)",
        "group": "galileo",
        "lat": -7.200328660946391,
        "lon": -138.12544835047873,
        "alt_km": 23211.73777268596,
        "timestamp": "2025-12-06T05:40:09.504463+00:00",
        "meta_object_name": "GSAT0205 (GALILEO 9)",
        "meta_object_id": "2015-045A",
        "meta_epoch": "2025-12-03T21:42:02.149056",
        "meta_mean_motion": 1.70472902,
        "meta_eccentricity": 0.0005859,
        "meta_inclination": 55.0066,
        "meta_ra_of_asc_node": 227.0025,
        "meta_arg_of_pericenter": 38.6315,
        "meta_mean_anomaly": 321.5029,
        "meta_ephemeris_type": 0,
        "meta_classification_type": "U",
        "meta_norad_cat_id": 40889,
        "meta_element_set_no": 999,
        "meta_rev_at_epoch": 6368,
        "meta_bstar": 0,
        "meta_mean_motion_dot": 4e-07,
        "meta_mean_motion_ddot": 0,
        "tle_line1": "1 40889U 15045A   25337.90419154  .00000040  00000+0  00000+0 0  9999",
        "tle_line2": "2 40889  55.0066 227.0025 0005859  38.6315 321.5029  1.70472902 63681"
      },
      "geometry": {
        "type": "Point",
        "coordinates": [
          -138.12544835047873,
          -7.200328660946391
        ]
      }
    },
    {
      "type": "Feature",
      "properties": {
        "norad_id": 40890,
        "name": "GSAT0206 (GALILEO 10)",
        "group": "galileo",
        "lat": -28.685463662100663,
        "lon": 69.45217752743432,
        "alt_km": 23236.130214726938,
        "timestamp": "2025-12-06T05:40:09.504475+00:00",
        "meta_object_name": "GSAT0206 (GALILEO 10)",
        "meta_object_id": "2015-045B",
        "meta_epoch": "2025-12-01T18:40:58.746144",
        "meta_mean_motion": 1.70473031,
        "meta_eccentricity": 0.0003438,
        "meta_inclination": 55.0064,
        "meta_ra_of_asc_node": 227.0564,
        "meta_arg_of_pericenter": 30.2471,
        "meta_mean_anomaly": 329.8532,
        "meta_ephemeris_type": 0,
        "meta_classification_type": "U",
        "meta_norad_cat_id": 40890,
        "meta_element_set_no": 999,
        "meta_rev_at_epoch": 6367,
        "meta_bstar": 0,
        "meta_mean_motion_dot": 3.4e-07,
        "meta_mean_motion_ddot": 0,
        "tle_line1": "1 40890U 15045B   25335.77845771  .00000034  00000+0  00000+0 0  9995",
        "tle_line2": "2 40890  55.0064 227.0564 0003438  30.2471 329.8532  1.70473031 63674"
      },
      "geometry": {
        "type": "Point",
        "coordinates": [
          69.45217752743432,
          -28.685463662100663
        ]
      }
    },
    {
      "type": "Feature",
      "properties": {
        "norad_id": 41174,
        "name": "GSAT0209 (GALILEO 12)",
        "group": "galileo",
        "lat": 49.67197647313389,
        "lon": -126.88674083545777,
        "alt_km": 23219.269624086923,
        "timestamp": "2025-12-06T05:40:09.504487+00:00",
        "meta_object_name": "GSAT0209 (GALILEO 12)",
        "meta_object_id": "2015-079A",
        "meta_epoch": "2025-12-01T22:43:10.411392",
        "meta_mean_motion": 1.70474306,
        "meta_eccentricity": 0.0002352,
        "meta_inclination": 55.7062,
        "meta_ra_of_asc_node": 106.6773,
        "meta_arg_of_pericenter": 357.4206,
        "meta_mean_anomaly": 2.5431,
        "meta_ephemeris_type": 0,
        "meta_classification_type": "U",
        "meta_norad_cat_id": 41174,
        "meta_element_set_no": 999,
        "meta_rev_at_epoch": 6141,
        "meta_bstar": 0,
        "meta_mean_motion_dot": 3.5e-07,
        "meta_mean_motion_ddot": 0,
        "tle_line1": "1 41174U 15079A   25335.94664828  .00000035  00000+0  00000+0 0  9990",
        "tle_line2": "2 41174  55.7062 106.6773 0002352 357.4206   2.5431  1.70474306 61412"
      },
      "geometry": {
        "type": "Point",
        "coordinates": [
          -126.88674083545777,
          49.67197647313389
        ]
      }
    },
    {
      "type": "Feature",
      "properties": {
        "norad_id": 41175,
        "name": "GSAT0208 (GALILEO 11)",
        "group": "galileo",
        "lat": -18.430797323955805,
        "lon": 93.40754897098638,
        "alt_km": 23219.946936106975,
        "timestamp": "2025-12-06T05:40:09.504498+00:00",
        "meta_object_name": "GSAT0208 (GALILEO 11)",
        "meta_object_id": "2015-079B",
        "meta_epoch": "2025-12-03T08:09:32.138784",
        "meta_mean_motion": 1.70474152,
        "meta_eccentricity": 0.00019072,
        "meta_inclination": 55.7055,
        "meta_ra_of_asc_node": 106.6362,
        "meta_arg_of_pericenter": 9.6551,
        "meta_mean_anomaly": 350.3047,
        "meta_ephemeris_type": 0,
        "meta_classification_type": "U",
        "meta_norad_cat_id": 41175,
        "meta_element_set_no": 999,
        "meta_rev_at_epoch": 6185,
        "meta_bstar": 0,
        "meta_mean_motion_dot": 2.2e-07,
        "meta_mean_motion_ddot": 0,
        "tle_line1": "1 41175U 15079B   25337.33995531  .00000022  00000+0  00000+0 0  9990",
        "tle_line2": "2 41175  55.7055 106.6362 0001907   9.6551 350.3047  1.70474152 61857"
      },
      "geometry": {
        "type": "Point",
        "coordinates": [
          93.40754897098638,
          -18.430797323955805
        ]
      }
    },
    {
      "type": "Feature",
      "properties": {
        "norad_id": 41549,
        "name": "GSAT0211 (GALILEO 14)",
        "group": "galileo",
        "lat": -54.24264047701644,
        "lon": 122.10098913024333,
        "alt_km": 23232.356738817023,
        "timestamp": "2025-12-06T05:40:09.504510+00:00",
        "meta_object_name": "GSAT0211 (GALILEO 14)",
        "meta_object_id": "2016-030A",
        "meta_epoch": "2025-12-04T15:17:32.790048",
        "meta_mean_motion": 1.70472925,
        "meta_eccentricity": 0.00039451,
        "meta_inclination": 55.1551,
        "meta_ra_of_asc_node": 227.0467,
        "meta_arg_of_pericenter": 12.3132,
        "meta_mean_anomaly": 347.7919,
        "meta_ephemeris_type": 0,
        "meta_classification_type": "U",
        "meta_norad_cat_id": 41549,
        "meta_element_set_no": 999,
        "meta_rev_at_epoch": 5935,
        "meta_bstar": 0,
        "meta_mean_motion_dot": 4e-07,
        "meta_mean_motion_ddot": 0,
        "tle_line1": "1 41549U 16030A   25338.63718507  .00000040  00000+0  00000+0 0  9993",
        "tle_line2": "2 41549  55.1551 227.0467 0003945  12.3132 347.7919  1.70472925 59357"
      },
      "geometry": {
        "type": "Point",
        "coordinates": [
          122.10098913024333,
          -54.24264047701644
        ]
      }
    },
    {
      "type": "Feature",
      "properties": {
        "norad_id": 41550,
        "name": "GSAT0210 (GALILEO 13)",
        "group": "galileo",
        "lat": 52.9901785092348,
        "lon": -20.377134575809226,
        "alt_km": 23219.31638997431,
        "timestamp": "2025-12-06T05:40:09.504521+00:00",
        "meta_object_name": "GSAT0210 (GALILEO 13)",
        "meta_object_id": "2016-030B",
        "meta_epoch": "2025-12-04T07:23:32.472672",
        "meta_mean_motion": 1.70473512,
        "meta_eccentricity": 0.0001419,
        "meta_inclination": 55.1546,
        "meta_ra_of_asc_node": 227.0538,
        "meta_arg_of_pericenter": 244.2228,
        "meta_mean_anomaly": 115.8568,
        "meta_ephemeris_type": 0,
        "meta_classification_type": "U",
        "meta_norad_cat_id": 41550,
        "meta_element_set_no": 999,
        "meta_rev_at_epoch": 5934,
        "meta_bstar": 0,
        "meta_mean_motion_dot": 4e-07,
        "meta_mean_motion_ddot": 0,
        "tle_line1": "1 41550U 16030B   25338.30801473  .00000040  00000+0  00000+0 0  9994",
        "tle_line2": "2 41550  55.1546 227.0538 0001419 244.2228 115.8568  1.70473512 59344"
      },
      "geometry": {
        "type": "Point",
        "coordinates": [
          -20.377134575809226,
          52.9901785092348
        ]
      }
    },
    {
      "type": "Feature",
      "properties": {
        "norad_id": 41859,
        "name": "GSAT0207 (GALILEO 15)",
        "group": "galileo",
        "lat": -49.44726046393389,
        "lon": 52.64206837364054,
        "alt_km": 23222.371910572205,
        "timestamp": "2025-12-06T05:40:09.504532+00:00",
        "meta_object_name": "GSAT0207 (GALILEO 15)",
        "meta_object_id": "2016-069A",
        "meta_epoch": "2025-12-03T23:59:33.819072",
        "meta_mean_motion": 1.70474248,
        "meta_eccentricity": 0.0002136,
        "meta_inclination": 55.3774,
        "meta_ra_of_asc_node": 106.4923,
        "meta_arg_of_pericenter": 325.6107,
        "meta_mean_anomaly": 34.3288,
        "meta_ephemeris_type": 0,
        "meta_classification_type": "U",
        "meta_norad_cat_id": 41859,
        "meta_element_set_no": 999,
        "meta_rev_at_epoch": 5607,
        "meta_bstar": 0,
        "meta_mean_motion_dot": 1.5e-07,
        "meta_mean_motion_ddot": 0,
        "tle_line1": "1 41859U 16069A   25337.99969698  .00000015  00000+0  00000+0 0  9998",
        "tle_line2": "2 41859  55.3774 106.4923 0002136 325.6107  34.3288  1.70474248 56074"
      },
      "geometry": {
        "type": "Point",
        "coordinates": [
          52.64206837364054,
          -49.44726046393389
        ]
      }
    }
  ]
}